64158,STARLINK-34166,2025-12-13T21:22:22.279296,2025-12-14T13:04:14.456627,97.6064,36.8773,0.0001173,99.535,260.6009,15.05657962,54609-3,3039,1 64158U 25112N   25347.89053564  .00007829  00000+0  54609-3 0  9998,2 64158  97.6064  36.8773 0001173  99.5350 260.6009 15.05657962 30399
64159,STARLINK-34344,2025-12-13T21:10:26.289408,2025-12-14T13:04:14.456627,97.6067,36.8891,0.0001139,78.6857,281.4497,15.05666235,57847-3,3039,1 64159U 25112P   25347.88224872  .00008299  00000+0  57847-3 0  9999,2 64159  97.6067  36.8891 0001139  78.6857 281.4497 15.05666235 30391
64160,STARLINK-34339,2025-12-13T17:35:05.650656,2025-12-14T13:04:14.456627,97.6036,36.7811,0.0002115,81.3256,278.821,15.05653927,22025-3,3037,1 64160U 25112Q   25347.73270429  .00003119  00000+0  22025-3 0  9990,2 64160  97.6036  36.7811 0002115  81.3256 278.8210 15.05653927 30374
64161,STARLINK-34341,2025-12-13T17:11:10.681440,2025-12-14T13:04:14.456627,97.6046,36.8061,0.0001369,88.5293,271.6091,15.05650484,36013-3,3037,1 64161U 25112R   25347.71609585  .00005139  00000+0  36013-3 0  9994,2 64161  97.6046  36.8061 0001369  88.5293 271.6091 15.05650484 30377
64162,STARLINK-34317,2025-12-13T16:47:15.173088,2025-12-14T13:04:14.456627,97.6049,36.8241,6.29e-05,103.7672,256.3625,15.05648545,26600-3,3037,1 64162U 25112S   25347.69948117  .00003779  00000+0  26600-3 0  9998,2 64162  97.6049  36.8241 0000629 103.7672 256.3625 15.05648545 30378
64163,STARLINK-34340,2025-12-13T22:38:08.552256,2025-12-14T13:04:14.456627,97.6063,36.9621,5.81e-05,119.0951,241.0334,15.05650404,44281-3,3040,1 64163U 25112T   25347.94315454  .00006334  00000+0  44281-3 0  9994,2 64163  97.6063  36.9621 0000581 119.0951 241.0334 15.05650404 30404
64164,STARLINK-34263,2025-12-13T20:50:29.112000,2025-12-14T13:04:14.456627,97.605,36.9084,0.0001441,91.8691,268.2701,15.05651662,40464-3,3039,1 64164U 25112U   25347.86839250  .00005783  00000+0  40464-3 0  9997,2 64164  97.6050  36.9084 0001441  91.8691 268.2701 15.05651662 30392
64165,STARLINK-33793,2025-12-13T20:38:31.116768,2025-12-14T13:04:14.456627,97.6047,36.9207,0.0001248,96.0333,264.1036,15.05661658,63511-3,3039,1 64165U 25112V   25347.86008237  .00009118  00000+0  63511-3 0  9995,2 64165  97.6047  36.9207 0001248  96.0333 264.1036 15.05661658 30393
64166,STARLINK-34313,2025-12-13T20:26:33.709920,2025-12-14T13:04:14.456627,97.6046,36.9333,5.82e-05,98.0597,262.0696,15.0565161,38779-3,3039,1 64166U 25112W   25347.85177905  .00005539  00000+0  38779-3 0  9995,2 64166  97.6046  36.9333 0000582  98.0597 262.0696 15.05651610 30393
64167,STARLINK-34309,2025-12-13T17:03:12.177504,2025-12-14T13:04:14.456627,97.6044,36.8131,0.0001172,97.4022,262.7338,15.05648126,26778-3,3037,1 64167U 25112X   25347.71055761  .00003805  00000+0  26778-3 0  9996,2 64167  97.6044  36.8131 0001172  97.4022 262.7338 15.05648126 30375
64168,STARLINK-34303,2025-12-13T21:38:20.353344,2025-12-14T13:04:14.456627,97.6046,37.0205,7.09e-05,106.9378,253.1927,15.05654216,37420-3,3040,1 64168U 25112Y   25347.90162446  .00005343  00000+0  37420-3 0  9992,2 64168  97.6046  37.0205 0000709 106.9378 253.1927 15.05654216 30407
64169,STARLINK-34175,2025-12-13T16:27:18.278208,2025-12-14T13:04:14.456627,97.6065,36.6889,7.95e-05,115.0081,245.1229,15.05648112,52038-3,3036,1 64169U 25112Z   25347.68562822  .00007455  00000+0  52038-3 0  9998,2 64169  97.6065  36.6889 0000795 115.0081 245.1229 15.05648112 30368
64170,STARLINK-34177,2025-12-13T18:44:23.426016,2025-12-14T13:04:14.456627,53.1593,130.0674,0.0001246,75.169,284.9449,15.30227365,13501-2,3191,1 64170U 25113A   25347.78082669  .00039875  00000+0  13501-2 0  9990,2 64170  53.1593 130.0674 0001246  75.1690 284.9449 15.30227365 31916
64171,STARLINK-34228,2025-12-13T21:25:07.966848,2025-12-14T13:04:14.456627,53.1578,129.3389,0.0001039,83.8246,276.2873,15.30207199,58842-3,3193,1 64171U 25113B   25347.89245332  .00017112  00000+0  58842-3 0  9999,2 64171  53.1578 129.3389 0001039  83.8246 276.2873 15.30207199 31937
64172,STARLINK-34233,2025-12-13T22:12:12.887424,2025-12-14T13:04:14.456627,53.1597,129.5415,0.0001083,85.9301,274.1824,15.30275638,17627-2,3193,1 64172U 25113C   25347.92514916  .00052339  00000+0  17627-2 0  9996,2 64172  53.1597 129.5415 0001083  85.9301 274.1824 15.30275638 31931
64173,STARLINK-34172,2025-12-13T19:52:36.056640,2025-12-14T13:04:14.456627,53.1571,129.6465,9.71e-05,87.9291,272.1821,15.30195695,94134-3,3188,1 64173U 25113D   25347.82819510  .00027621  00000+0  94134-3 0  9999,2 64173  53.1571 129.6465 0000971  87.9291 272.1821 15.30195695 31888
64174,STARLINK-34202,2025-12-13T17:19:27.062400,2025-12-14T13:04:14.456627,53.16,130.406,0.0001323,66.1603,293.9537,15.30216257,52286-3,3190,1 64174U 25113E   25347.72184100  .00015166  00000+0  52286-3 0  9992,2 64174  53.1600 130.4060 0001323  66.1603 293.9537 15.30216257 31907
64175,STARLINK-34231,2025-12-13T20:50:20.736384,2025-12-14T13:04:14.456627,53.1591,129.894,0.0001116,84.3685,275.7443,15.30222099,85967-3,3192,1 64175U 25113F   25347.86829556  .00025206  00000+0  85967-3 0  9997,2 64175  53.1591 129.8940 0001116  84.3685 275.7443 15.30222099 31925
64176,STARLINK-34191,2025-12-13T16:24:44.308224,2025-12-14T13:04:14.456627,53.1583,130.1659,0.0001146,84.6664,275.4468,15.30190796,14863-2,3190,1 64176U 25113G   25347.68384616  .00043908  00000+0  14863-2 0  9996,2 64176  53.1583 130.1659 0001146  84.6664 275.4468 15.30190796 31902
64177,STARLINK-34164,2025-12-13T19:26:55.728672,2025-12-14T13:04:14.456627,53.1582,130.2466,0.0001139,91.7703,268.3428,15.30195438,14176-2,3191,1 64177U 25113H   25347.81036723  .00041856  00000+0  14176-2 0  9992,2 64177  53.1582 130.2466 0001139  91.7703 268.3428 15.30195438 31910
64178,STARLINK-34227,2025-12-13T22:06:09.786240,2025-12-14T13:04:14.456627,53.1612,129.5136,0.0001666,46.0492,314.0646,15.30220983,69649-3,3193,1 64178U 25113J   25347.92094660  .00020339  00000+0  69649-3 0  9998,2 64178  53.1612 129.5136 0001666  46.0492 314.0646 15.30220983 31930
64179,STARLINK-34194,2025-12-13T18:06:23.406912,2025-12-14T13:04:14.456627,53.1571,129.8974,9.63e-05,72.3648,287.7457,15.30199087,14136-2,3191,1 64179U 25113K   25347.75443758  .00041743  00000+0  14136-2 0  9998,2 64179  53.1571 129.8974 0000963  72.3648 287.7457 15.30199087 31916
64180,STARLINK-34000,2025-12-13T20:10:50.205504,2025-12-14T13:04:14.456627,53.159,129.7246,0.0001352,66.0672,294.047,15.30200736,11462-2,3188,1 64180U 25113L   25347.84085886  .00033742  00000+0  11462-2 0  9993,2 64180  53.1590 129.7246 0001352  66.0672 294.0470 15.30200736 31886
64181,STARLINK-33917,2025-12-13T20:48:49.614624,2025-12-14T13:04:14.456627,53.1591,129.8875,0.0001022,73.6305,286.4808,15.30214785,91414-3,3192,1 64181U 25113M   25347.86724091  .00026825  00000+0  91414-3 0  9994,2 64181  53.1591 129.8875 0001022  73.6305 286.4808 15.30214785 31922
64182,STARLINK-34131,2025-12-13T18:55:00.928416,2025-12-14T13:04:14.456627,53.1595,130.1044,0.0001031,91.0378,269.0741,15.30191381,85356-3,3187,1 64182U 25113N   25347.78820519  .00024999  00000+0  85356-3 0  9996,2 64182  53.1595 130.1044 0001031  91.0378 269.0741 15.30191381 31877
64183,STARLINK-34188,2025-12-13T16:09:43.187328,2025-12-14T13:04:14.456627,53.1594,130.8124,0.0001228,80.2641,279.8498,15.30241365,94873-3,3189,1 64183U 25113P   25347.67341652  .00027881  00000+0  94873-3 0  9998,2 64183  53.1594 130.8124 0001228  80.2641 279.8498 15.30241365 31892
64184,STARLINK-34197,2025-12-13T20:56:25.471392,2025-12-14T13:04:14.456627,53.1586,129.9218,0.0001245,72.5069,287.6068,15.30211748,81715-3,3192,1 64184U 25113Q   25347.87251703  .00023929  00000+0  81715-3 0  9998,2 64184  53.1586 129.9218 0001245  72.5069 287.6068 15.30211748 31920
64185,STARLINK-34063,2025-12-13T19:02:36.912192,2025-12-14T13:04:14.456627,53.1587,130.1377,9.56e-05,70.6384,289.472,15.30201678,10389-2,3191,1 64185U 25113R   25347.79348278  .00030537  00000+0  10389-2 0  9995,2 64185  53.1587 130.1377 0000956  70.6384 289.4720 15.30201678 31914
64186,STARLINK-34200,2025-12-13T18:27:39.731040,2025-12-14T13:04:14.456627,53.158,129.9861,8.89e-05,77.8415,282.2685,15.30201645,75167-3,3191,1 64186U 25113S   25347.76920985  .00021970  00000+0  75167-3 0  9991,2 64186  53.1580 129.9861 0000889  77.8415 282.2685 15.30201645 31916
64187,STARLINK-33934,2025-12-13T19:08:41.446752,2025-12-14T13:04:14.456627,53.1587,130.165,9.76e-05,67.3662,292.7442,15.30209972,38855-3,3187,1 64187U 25113T   25347.79770193  .00011170  00000+0  38855-3 0  9993,2 64187  53.1587 130.1650 0000976  67.3662 292.7442 15.30209972 31872
64188,STARLINK-33929,2025-12-13T19:05:39.115104,2025-12-14T13:04:14.456627,53.1584,130.1482,8.63e-05,77.0637,283.046,15.30216802,61214-3,3191,1 64188U 25113U   25347.79559161  .00017824  00000+0  61214-3 0  9991,2 64188  53.1584 130.1482 0000863  77.0637 283.0460 15.30216802 31916
64189,STARLINK-33872,2025-12-13T19:41:57.756768,2025-12-14T13:04:14.456627,53.1571,129.5964,0.0001079,87.3113,272.8011,15.30203937,12689-2,3188,1 64189U 25113V   25347.82080737  .00037416  00000+0  12689-2 0  9994,2 64189  53.1571 129.5964 0001079  87.3113 272.8011 15.30203937 31882
64190,STARLINK-34214,2025-12-13T19:23:53.422944,2025-12-14T13:04:14.456627,53.1583,130.2261,0.0001097,78.2222,281.8901,15.30200285,13312-2,3191,1 64190U 25113W   25347.80825721  .00039276  00000+0  13312-2 0  9994,2 64190  53.1583 130.2261 0001097  78.2222 281.8901 15.30200285 31911
64191,STARLINK-34222,2025-12-13T19:31:27.537888,2025-12-14T13:04:14.456627,53.1581,130.2578,0.0001154,88.1827,271.9306,15.30213965,-75245-3,3187,1 64191U 25113X   25347.81351317 -.00022587  00000+0 -75245-3 0  9994,2 64191  53.1581 130.2578 0001154  88.1827 271.9306 15.30213965 31879
64192,STARLINK-34265,2025-12-13T19:13:15.094560,2025-12-14T13:04:14.456627,53.1605,130.1831,6.56e-05,44.7503,315.3551,15.30209321,10445-2,3187,1 64192U 25113Y   25347.80086915  .00030712  00000+0  10445-2 0  9990,2 64192  53.1605 130.1831 0000656  44.7503 315.3551 15.30209321 31879
